OBJECT_NAME,OBJECT_ID,EPOCH,MEAN_MOTION,ECCENTRICITY,INCLINATION,RA_OF_ASC_NODE,ARG_OF_PERICENTER,MEAN_ANOMALY,EPHEMERIS_TYPE,CLASSIFICATION_TYPE,NORAD_CAT_ID,ELEMENT_SET_NO,REV_AT_EPOCH,BSTAR,MEAN_MOTION_DOT,MEAN_MOTION_DDOT
COSMOS 2534 (758),2019-030A,2026-07-16T15:35:19.703040,2.13102191,.0013502,64.3705,191.6243,275.0108,146.6615,0,U,44299,999,5555,0,.52E-6,0
BEIDOU-3 IGSO-2 (C39),2019-035A,2026-07-17T18:58:09.302016,1.00256724,.00392839,55.2514,158.5934,216.3777,323.5324,0,U,44337,999,2597,0,-.127E-5,0
GPS BIII-2  (PRN 18),2019-056A,2026-07-17T13:03:37.816416,2.00570120,.0063535,55.6206,329.9359,198.1981,149.1155,0,U,44506,999,5067,0,-.1E-5,0
BEIDOU-3 M24 (C46),2019-061A,2026-07-17T20:22:15.399840,1.86229139,.00086561,54.3974,181.6938,359.7978,0.1726,0,U,44542,999,4636,0,.52E-6,0
BEIDOU-3 M23 (C45),2019-061B,2026-07-16T08:45:12.138912,1.86227496,.0005956,54.3958,181.7121,340.9242,15.4707,0,U,44543,999,4633,0,.41E-6,0
EUTELSAT 5 WEST B (EGNOS/PRN 121),2019-067A,2026-07-17T18:22:55.348032,1.00272734,.00028958,0.0802,318.9841,159.7236,87.5934,0,U,44624,999,2474,0,-.51E-6,0
BEIDOU-3 M22 (C44),2019-078A,2026-07-13T09:26:32.496288,1.86227300,.00057504,53.9106,298.9058,50.3045,309.7753,0,U,44793,999,4513,0,-.62E-6,0
BEIDOU-3 M21 (C43),2019-078B,2026-07-17T19:53:44.349792,1.86227742,.0003527,53.8792,298.7098,49.8357,310.2350,0,U,44794,999,4522,0,-.83E-6,0
COSMOS 2544 (759),2019-088A,2026-07-17T12:45:06.045408,2.13102863,.0012089,65.5819,72.7186,253.3927,106.5489,0,U,44850,999,5136,0,-.24E-6,0
BEIDOU-3 M19 (C41),2019-090A,2026-07-17T19:21:35.758368,1.86231385,.00167875,56.5857,61.7789,297.6013,245.0681,0,U,44864,999,4480,0,-.6E-6,0
BEIDOU-3 M20 (C42),2019-090B,2026-07-18T05:58:35.347872,1.86231410,.0014281,56.5878,61.7982,312.4225,256.4049,0,U,44865,999,4479,0,-.64E-6,0
BEIDOU-3 G2 (C60),2020-017A,2026-07-17T22:12:32.895936,1.00272354,.0001763,2.9252,47.7773,59.2513,241.8562,0,U,45344,999,2356,0,-.15E-5,0
COSMOS 2545 (760),2020-018A,2026-07-17T17:25:47.936064,2.13102350,.00096638,64.3350,311.3457,229.7748,130.1625,0,U,45358,999,4931,0,-.69E-6,0
BEIDOU-3 G3 (C61),2020-040A,2026-07-17T16:34:13.311840,1.00275238,.00022183,2.5205,67.4905,308.6424,278.4253,0,U,45807,999,2237,0,-.364E-5,0
GPS BIII-3  (PRN 23),2020-041A,2026-07-17T09:40:05.795040,2.00557849,.0065297,56.6898,27.7716,204.6840,337.6305,0,U,45854,999,4464,0,-.83E-6,0
GALAXY 30 (WAAS/PRN 135),2020-056C,2026-07-17T14:23:25.503072,1.00270960,.00022542,0.0225,59.8270,58.8872,267.5676,0,U,46114,999,2159,0,0,0
COSMOS 2547 (705K),2020-075A,2026-07-15T13:40:19.372224,2.13099910,.00094588,64.6014,191.5282,239.8249,120.0839,0,U,46805,999,4451,0,.54E-6,0
GPS BIII-4  (PRN 14),2020-078A,2026-07-17T22:25:09.187968,2.00564994,.00746167,53.9768,209.5313,207.8920,335.4474,0,U,46826,999,4212,0,.42E-6,0
GPS BIII-5  (PRN 11),2021-054A,2026-07-17T22:57:18.707328,2.00567006,.00265137,55.1579,331.2224,228.5607,157.2621,0,U,48859,999,3737,0,-.103E-5,0
QZS-1R (QZSS/PRN 196),2021-096A,2026-07-17T13:39:38.744352,1.00244494,.0755353,37.5223,79.1315,272.2799,280.3110,0,U,49336,999,1731,0,-.311E-5,0
GSAT0223 (GALILEO 27),2021-116A,2026-07-16T21:55:53.520960,1.70476073,.00024409,57.1499,340.8723,195.3183,168.4273,0,U,49809,999,2869,0,-.103E-5,0
GSAT0224 (GALILEO 28),2021-116B,2026-07-16T17:27:13.396896,1.70476111,.00018421,57.1497,340.8759,181.9610,179.9110,0,U,49810,999,2871,0,-.103E-5,0
COSMOS 2557 (706K),2022-075A,2026-07-15T17:36:40.979232,2.13102146,.00108557,64.2802,313.4798,271.2186,88.6706,0,U,52984,999,3132,0,-.64E-6,0
COSMOS 2559 (707K),2022-130A,2026-07-17T21:35:44.123136,2.13101705,.00131277,64.2512,313.4857,181.2950,178.7209,0,U,54031,999,2934,0,-.72E-6,0
COSMOS 2564 (761),2022-161A,2026-07-17T17:49:47.474976,2.13102009,.00122067,64.7440,191.6974,224.8481,135.0511,0,U,54377,999,2828,0,.58E-6,0
GPS BIII-6  (PRN 28),2023-009A,2026-07-17T02:59:03.820992,2.00569455,.00062381,55.1244,147.3421,322.1969,221.4770,0,U,55268,999,2584,0,.24E-6,0
BEIDOU-3 G4 (C62),2023-066A,2026-07-17T22:29:31.269408,1.00271768,.00049651,0.4580,339.7726,185.3706,248.0522,0,U,56564,999,1170,0,-.289E-5,0
NVS-01 (IRNSS-1J),2023-076A,2026-07-17T22:26:31.557408,1.00277341,.00030808,2.0949,242.9457,20.1968,138.6592,0,U,56759,999,1142,0,-.344E-5,0
COSMOS 2569 (703K),2023-114A,2026-07-15T21:04:36.390144,2.13103741,.00096551,65.3185,71.6532,295.9092,64.0686,0,U,57517,999,2287,0,-.13E-6,0
BEIDOU-3 M28 (C50),2023-207A,2026-07-17T08:51:18.843840,1.86229711,.0002355,55.7796,61.2849,6.6931,353.3796,0,U,58654,999,1740,0,-.58E-6,0
BEIDOU-3 M26 (C48),2023-207B,2026-07-13T22:40:23.820960,1.86229657,.0002016,55.7789,61.3870,324.6613,35.3983,0,U,58655,999,1732,0,-.41E-6,0
